<?xml version="1.0" encoding="UTF-8"?>
<ndm xmlns:xsi="http://www.w3.org/2001/XMLSchema-instance" xsi:noNamespaceSchemaLocation="https://sanaregistry.org/r/ndmxml_unqualified/ndmxml-2.0.0-master-2.0.xsd">
<omm id="CCSDS_OMM_VERS" version="2.0">
<header><CREATION_DATE/><ORIGINATOR/></header><body><segment><metadata><OBJECT_NAME>ORBCOMM-X</OBJECT_NAME><OBJECT_ID>1991-050C</OBJECT_ID><CENTER_NAME>EARTH</CENTER_NAME><REF_FRAME>TEME</REF_FRAME><TIME_SYSTEM>UTC</TIME_SYSTEM><MEAN_ELEMENT_THEORY>SGP4</MEAN_ELEMENT_THEORY></metadata><data><meanElements><EPOCH>2025-03-05T19:08:32.545824</EPOCH><MEAN_MOTION>14.43120935</MEAN_MOTION><ECCENTRICITY>.0004609</ECCENTRICITY><INCLINATION>98.3548</INCLINATION><RA_OF_ASC_NODE>133.4603</RA_OF_ASC_NODE><ARG_OF_PERICENTER>129.7010</ARG_OF_PERICENTER><MEAN_ANOMALY>230.4587</MEAN_ANOMALY></meanElements><tleParameters><EPHEMERIS_TYPE>0</EPHEMERIS_TYPE><CLASSIFICATION_TYPE>U</CLASSIFICATION_TYPE><NORAD_CAT_ID>21576</NORAD_CAT_ID><ELEMENT_SET_NO>999</ELEMENT_SET_NO><REV_AT_EPOCH>76720</REV_AT_EPOCH><BSTAR>.18572E-3</BSTAR><MEAN_MOTION_DOT>.58E-5</MEAN_MOTION_DOT><MEAN_MOTION_DDOT>0</MEAN_MOTION_DDOT></tleParameters></data></segment></body></omm>
<omm id="CCSDS_OMM_VERS" version="2.0">
<header><CREATION_DATE/><ORIGINATOR/></header><body><segment><metadata><OBJECT_NAME>ORBCOMM FM01</OBJECT_NAME><OBJECT_ID>1995-017A</OBJECT_ID><CENTER_NAME>EARTH</CENTER_NAME><REF_FRAME>TEME</REF_FRAME><TIME_SYSTEM>UTC</TIME_SYSTEM><MEAN_ELEMENT_THEORY>SGP4</MEAN_ELEMENT_THEORY></metadata><data><meanElements><EPOCH>2025-03-05T21:35:28.680864</EPOCH><MEAN_MOTION>14.88075457</MEAN_MOTION><ECCENTRICITY>.0002601</ECCENTRICITY><INCLINATION>69.9656</INCLINATION><RA_OF_ASC_NODE>331.3686</RA_OF_ASC_NODE><ARG_OF_PERICENTER>190.3042</ARG_OF_PERICENTER><MEAN_ANOMALY>169.8058</MEAN_ANOMALY></meanElements><tleParameters><EPHEMERIS_TYPE>0</EPHEMERIS_TYPE><CLASSIFICATION_TYPE>U</CLASSIFICATION_TYPE><NORAD_CAT_ID>23545</NORAD_CAT_ID><ELEMENT_SET_NO>999</ELEMENT_SET_NO><REV_AT_EPOCH>59713</REV_AT_EPOCH><BSTAR>.96065E-3</BSTAR><MEAN_MOTION_DOT>.8775E-4</MEAN_MOTION_DOT><MEAN_MOTION_DDOT>0</MEAN_MOTION_DDOT></tleParameters></data></segment></body></omm>
<omm id="CCSDS_OMM_VERS" version="2.0">
<header><CREATION_DATE/><ORIGINATOR/></header><body><segment><metadata><OBJECT_NAME>ORBCOMM FM02</OBJECT_NAME><OBJECT_ID>1995-017B</OBJECT_ID><CENTER_NAME>EARTH</CENTER_NAME><REF_FRAME>TEME</REF_FRAME><TIME_SYSTEM>UTC</TIME_SYSTEM><MEAN_ELEMENT_THEORY>SGP4</MEAN_ELEMENT_THEORY></metadata><data><meanElements><EPOCH>2025-03-05T21:19:47.814240</EPOCH><MEAN_MOTION>14.88485341</MEAN_MOTION><ECCENTRICITY>.0003141</ECCENTRICITY><INCLINATION>69.9678</INCLINATION><RA_OF_ASC_NODE>351.0368</RA_OF_ASC_NODE><ARG_OF_PERICENTER>164.7665</ARG_OF_PERICENTER><MEAN_ANOMALY>195.3584</MEAN_ANOMALY></meanElements><tleParameters><EPHEMERIS_TYPE>0</EPHEMERIS_TYPE><CLASSIFICATION_TYPE>U</CLASSIFICATION_TYPE><NORAD_CAT_ID>23546</NORAD_CAT_ID><ELEMENT_SET_NO>999</ELEMENT_SET_NO><REV_AT_EPOCH>59677</REV_AT_EPOCH><BSTAR>.11786E-2</BSTAR><MEAN_MOTION_DOT>.10899E-3</MEAN_MOTION_DOT><MEAN_MOTION_DDOT>0</MEAN_MOTION_DDOT></tleParameters></data></segment></body></omm>
<omm id="CCSDS_OMM_VERS" version="2.0">
<header><CREATION_DATE/><ORIGINATOR/></header><body><segment><metadata><OBJECT_NAME>ORBCOMM FM08</OBJECT_NAME><OBJECT_ID>1997-084A</OBJECT_ID><CENTER_NAME>EARTH</CENTER_NAME><REF_FRAME>TEME</REF_FRAME><TIME_SYSTEM>UTC</TIME_SYSTEM><MEAN_ELEMENT_THEORY>SGP4</MEAN_ELEMENT_THEORY></metadata><data><meanElements><EPOCH>2025-03-05T14:04:59.085408</EPOCH><MEAN_MOTION>14.45224902</MEAN_MOTION><ECCENTRICITY>.0004026</ECCENTRICITY><INCLINATION>45.0126</INCLINATION><RA_OF_ASC_NODE>145.0113</RA_OF_ASC_NODE><ARG_OF_PERICENTER>93.7515</ARG_OF_PERICENTER><MEAN_ANOMALY>266.3797</MEAN_ANOMALY></meanElements><tleParameters><EPHEMERIS_TYPE>0</EPHEMERIS_TYPE><CLASSIFICATION_TYPE>U</CLASSIFICATION_TYPE><NORAD_CAT_ID>25112</NORAD_CAT_ID><ELEMENT_SET_NO>999</ELEMENT_SET_NO><REV_AT_EPOCH>42638</REV_AT_EPOCH><BSTAR>.82706E-3</BSTAR><MEAN_MOTION_DOT>.2784E-4</MEAN_MOTION_DOT><MEAN_MOTION_DDOT>0</MEAN_MOTION_DDOT></tleParameters></data></segment></body></omm>
<omm id="CCSDS_OMM_VERS" version="2.0">
<header><CREATION_DATE/><ORIGINATOR/></header><body><segment><metadata><OBJECT_NAME>ORBCOMM FM10</OBJECT_NAME><OBJECT_ID>1997-084B</OBJECT_ID><CENTER_NAME>EARTH</CENTER_NAME><REF_FRAME>TEME</REF_FRAME><TIME_SYSTEM>UTC</TIME_SYSTEM><MEAN_ELEMENT_THEORY>SGP4</MEAN_ELEMENT_THEORY></metadata><data><meanElements><EPOCH>2025-03-05T16:35:11.299200</EPOCH><MEAN_MOTION>14.45024719</MEAN_MOTION><ECCENTRICITY>.000242</ECCENTRICITY><INCLINATION>45.0140</INCLINATION><RA_OF_ASC_NODE>146.7131</RA_OF_ASC_NODE><ARG_OF_PERICENTER>33.9452</ARG_OF_PERICENTER><MEAN_ANOMALY>326.1553</MEAN_ANOMALY></meanElements><tleParameters><EPHEMERIS_TYPE>0</EPHEMERIS_TYPE><CLASSIFICATION_TYPE>U</CLASSIFICATION_TYPE><NORAD_CAT_ID>25113</NORAD_CAT_ID><ELEMENT_SET_NO>999</ELEMENT_SET_NO><REV_AT_EPOCH>60154</REV_AT_EPOCH><BSTAR>.7573E-3</BSTAR><MEAN_MOTION_DOT>.2525E-4</MEAN_MOTION_DOT><MEAN_MOTION_DDOT>0</MEAN_MOTION_DDOT></tleParameters></data></segment></body></omm>
<omm id="CCSDS_OMM_VERS" version="2.0">
<header><CREATION_DATE/><ORIGINATOR/></header><body><segment><metadata><OBJECT_NAME>ORBCOMM FM11</OBJECT_NAME><OBJECT_ID>1997-084C</OBJECT_ID><CENTER_NAME>EARTH</CENTER_NAME><REF_FRAME>TEME</REF_FRAME><TIME_SYSTEM>UTC</TIME_SYSTEM><MEAN_ELEMENT_THEORY>SGP4</MEAN_ELEMENT_THEORY></metadata><data><meanElements><EPOCH>2025-03-05T12:57:05.561280</EPOCH><MEAN_MOTION>14.44781375</MEAN_MOTION><ECCENTRICITY>.0003183</ECCENTRICITY><INCLINATION>45.0123</INCLINATION><RA_OF_ASC_NODE>147.8862</RA_OF_ASC_NODE><ARG_OF_PERICENTER>40.5855</ARG_OF_PERICENTER><MEAN_ANOMALY>319.5233</MEAN_ANOMALY></meanElements><tleParameters><EPHEMERIS_TYPE>0</EPHEMERIS_TYPE><CLASSIFICATION_TYPE>U</CLASSIFICATION_TYPE><NORAD_CAT_ID>25114</NORAD_CAT_ID><ELEMENT_SET_NO>999</ELEMENT_SET_NO><REV_AT_EPOCH>42648</REV_AT_EPOCH><BSTAR>.7309E-3</BSTAR><MEAN_MOTION_DOT>.2419E-4</MEAN_MOTION_DOT><MEAN_MOTION_DDOT>0</MEAN_MOTION_DDOT></tleParameters></data></segment></body></omm>
<omm id="CCSDS_OMM_VERS" version="2.0">
<header><CREATION_DATE/><ORIGINATOR/></header><body><segment><metadata><OBJECT_NAME>ORBCOMM FM12</OBJECT_NAME><OBJECT_ID>1997-084D</OBJECT_ID><CENTER_NAME>EARTH</CENTER_NAME><REF_FRAME>TEME</REF_FRAME><TIME_SYSTEM>UTC</TIME_SYSTEM><MEAN_ELEMENT_THEORY>SGP4</MEAN_ELEMENT_THEORY></metadata><data><meanElements><EPOCH>2025-03-05T15:24:27.853920</EPOCH><MEAN_MOTION>14.44799534</MEAN_MOTION><ECCENTRICITY>.0002246</ECCENTRICITY><INCLINATION>45.0133</INCLINATION><RA_OF_ASC_NODE>147.1576</RA_OF_ASC_NODE><ARG_OF_PERICENTER>32.4123</ARG_OF_PERICENTER><MEAN_ANOMALY>327.6865</MEAN_ANOMALY></meanElements><tleParameters><EPHEMERIS_TYPE>0</EPHEMERIS_TYPE><CLASSIFICATION_TYPE>U</CLASSIFICATION_TYPE><NORAD_CAT_ID>25115</NORAD_CAT_ID><ELEMENT_SET_NO>999</ELEMENT_SET_NO><REV_AT_EPOCH>42629</REV_AT_EPOCH><BSTAR>.75944E-3</BSTAR><MEAN_MOTION_DOT>.252E-4</MEAN_MOTION_DOT><MEAN_MOTION_DDOT>0</MEAN_MOTION_DDOT></tleParameters></data></segment></body></omm>
<omm id="CCSDS_OMM_VERS" version="2.0">
<header><CREATION_DATE/><ORIGINATOR/></header><body><segment><metadata><OBJECT_NAME>ORBCOMM FM09</OBJECT_NAME><OBJECT_ID>1997-084E</OBJECT_ID><CENTER_NAME>EARTH</CENTER_NAME><REF_FRAME>TEME</REF_FRAME><TIME_SYSTEM>UTC</TIME_SYSTEM><MEAN_ELEMENT_THEORY>SGP4</MEAN_ELEMENT_THEORY></metadata><data><meanElements><EPOCH>2025-03-05T14:19:16.727232</EPOCH><MEAN_MOTION>14.44695161</MEAN_MOTION><ECCENTRICITY>.0003849</ECCENTRICITY><INCLINATION>45.0136</INCLINATION><RA_OF_ASC_NODE>148.2096</RA_OF_ASC_NODE><ARG_OF_PERICENTER>18.9750</ARG_OF_PERICENTER><MEAN_ANOMALY>341.1244</MEAN_ANOMALY></meanElements><tleParameters><EPHEMERIS_TYPE>0</EPHEMERIS_TYPE><CLASSIFICATION_TYPE>U</CLASSIFICATION_TYPE><NORAD_CAT_ID>25116</NORAD_CAT_ID><ELEMENT_SET_NO>999</ELEMENT_SET_NO><REV_AT_EPOCH>42652</REV_AT_EPOCH><BSTAR>.77011E-3</BSTAR><MEAN_MOTION_DOT>.2552E-4</MEAN_MOTION_DOT><MEAN_MOTION_DDOT>0</MEAN_MOTION_DDOT></tleParameters></data></segment></body></omm>

</ndm>
