ORBCOMM-X               
1 21576U 91050C   25064.79759891  .00000580  00000+0  18572-3 0  9996
2 21576  98.3548 133.4603 0004609 129.7010 230.4587 14.43120935767202
ORBCOMM FM01            
1 23545U 95017A   25064.89963751  .00008775  00000+0  96065-3 0  9991
2 23545  69.9656 331.3686 0002601 190.3042 169.8058 14.88075457597131
ORBCOMM FM02            
1 23546U 95017B   25064.88874785  .00010899  00000+0  11786-2 0  9995
2 23546  69.9678 351.0368 0003141 164.7665 195.3584 14.88485341596772
ORBCOMM FM08            
1 25112U 97084A   25064.58679497  .00002784  00000+0  82706-3 0  9997
2 25112  45.0126 145.0113 0004026  93.7515 266.3797 14.45224902426384
ORBCOMM FM10            
1 25113U 97084B   25064.69110300  .00002525  00000+0  75730-3 0  9995
2 25113  45.0140 146.7131 0002420  33.9452 326.1553 14.45024719601543
ORBCOMM FM11            
1 25114U 97084C   25064.53964770  .00002419  00000+0  73090-3 0  9996
2 25114  45.0123 147.8862 0003183  40.5855 319.5233 14.44781375426482
ORBCOMM FM12            
1 25115U 97084D   25064.64198905  .00002520  00000+0  75944-3 0  9991
2 25115  45.0133 147.1576 0002246  32.4123 327.6865 14.44799534426292
ORBCOMM FM09            
1 25116U 97084E   25064.59672138  .00002552  00000+0  77011-3 0  9993
2 25116  45.0136 148.2096 0003849  18.9750 341.1244 14.44695161426529
